CUTE-1 (CO-55)          
1 27844U 03031E   25091.74854549  .00000727  00000+0  33628-3 0  9995
2 27844  98.6789 100.9048 0010270  33.9649 326.2186 14.23913527128871
CUBESAT XI-IV (CO-57)   
1 27848U 03031J   25091.45412794  .00000654  00000+0  30797-3 0  9992
2 27848  98.6819 100.6716 0010456  50.2807 309.9291 14.23259740128530
CUBESAT XI-V            
1 28895U 05043F   25091.33371839  .00003983  00000+0  66206-3 0  9993
2 28895  98.2382 234.8761 0015267 163.1215 197.0502 14.70617368 36766
CUTE-1.7+APD II (CO-65) 
1 32785U 08021C   25091.81204916  .00009971  00000+0  73745-3 0  9998
2 32785  97.7779  62.5401 0011932  84.9446 275.3140 15.03334892918819
AAUSAT-II               
1 32788U 08021F   25091.50550129  .00209809  00000+0  22516-2 0  9998
2 32788  97.6040  86.0418 0006637 135.3398 224.8395 15.63088263922511
CANX-2                  
1 32790U 08021H   25091.85632455  .00008797  00000+0  69500-3 0  9990
2 32790  97.8112  61.1286 0015557  71.6479 288.6435 15.00823126918587
SEEDS II (CO-66)        
1 32791U 08021J   25091.74028453  .00021912  00000+0  11322-2 0  9998
2 32791  97.7250  70.3742 0006508  65.6862 294.5049 15.16285647920132
SWISSCUBE               
1 35932U 09051B   25091.60689219  .00002288  00000+0  47563-3 0  9992
2 35932  98.4372 346.5359 0007676 136.9460 223.2342 14.61074119824643
BEESAT-1                
1 35933U 09051C   25091.69137533  .00001950  00000+0  41173-3 0  9995
2 35933  98.4303 347.0971 0005871 146.5049 213.6523 14.60528568824790
ITUPSAT1                
1 35935U 09051E   25091.51476014  .00001770  00000+0  38431-3 0  9991
2 35935  98.4398 346.5141 0007905 158.0390 202.1149 14.59342805824294
TISAT 1                 
1 36799U 10035E   25091.46999431  .00019866  00000+0  10867-2 0  9998
2 36799  98.0623   1.3235 0003309  16.7543 343.3796 15.14304252800504
AEROCUBE 4.5A           
1 38767U 12048K   25091.37970492  .00041877  00000+0  12558-2 0  9993
2 38767  64.6477  95.4309 0104337 293.8238  65.1981 15.28962805304227
STRAND-1                
1 39090U 13009E   25091.80137694  .00000754  00000+0  26998-3 0  9991
2 39090  98.3826 278.3025 0009866 108.5963 251.6296 14.36735597633695
BRITE-AUSTRIA           
1 39091U 13009F   25091.50445704  .00000503  00000+0  18658-3 0  9999
2 39091  98.3881 277.2762 0011314 116.5493 243.6854 14.36254126633641
NEE-01 PEGASO           
1 39151U 13018B   25091.84379670  .00006404  00000+0  66571-3 0  9994
2 39151  98.0622 219.2259 0014051 171.7668 188.3782 14.90178929644905
ESTCUBE 1               
1 39161U 13021C   25091.70194623  .00003269  00000+0  44541-3 0  9996
2 39161  97.7865 155.3744 0008718  23.9069 336.2546 14.79334462639747
POPACS 1                
1 39268U 13055D   25091.47357915  .00079526  69354-6  84621-3 0  9996
2 39268  80.9759 171.4945 0277253 220.2923 137.7479 15.28797123604031
POPACS 2                
1 39269U 13055E   25090.96328481  .00034719  00000+0  69632-3 0  9992
2 39269  80.9928 283.3364 0489621 155.1561 207.4113 14.72621622597710
POPACS 3                
1 39270U 13055F   25091.41473252  .00014685  00000+0  37898-3 0  9991
2 39270  81.0079 344.6003 0590558 326.1355  30.3388 14.46171562574485
ZACUBE-1 (TSHEPISOSAT)  
1 39417U 13066B   25091.83887697  .00009821  00000+0  87076-3 0  9993
2 39417  97.7748  49.2883 0042620 282.5782  77.0674 14.95715350614631
WNISAT-1                
1 39423U 13066H   25091.43847557  .00003227  00000+0  60518-3 0  9993
2 39423  97.6735 268.7146 0166092 182.6321 177.4022 14.56850505602382
TRITON-1                
1 39427U 13066M   25091.79293917  .00004682  00000+0  60255-3 0  9995
2 39427  97.8387   7.3305 0094065 229.0532 130.2511 14.78496411608983
DELFI-N3XT              
1 39428U 13066N   25091.75923748  .00009856  00000+0  10336-2 0  9996
2 39428  97.8357  10.2433 0085349 226.3068 133.1055 14.87046866609021
GOMX-1                  
1 39430U 13066Q   25091.82379513  .00003425  00000+0  53812-3 0  9995
2 39430  97.6926 314.6870 0134545  52.8680 308.4728 14.67249431605329
CUBEBUG-2 (LO-74)       
1 39440U 13066AA  25091.82509522  .00008972  00000+0  92162-3 0  9994
2 39440  97.8444  36.9222 0064703  48.0624 312.6083 14.89033017612408
NEE-02 KRYSAOR          
1 39441U 13066AB  25091.81738556  .00005147  00000+0  60007-3 0  9999
2 39441  97.8504  31.2392 0071452  75.3614 285.5509 14.83801469611849
FUNCUBE-1 (AO-73)       
1 39444U 13066AE  25091.84968730  .00013020  00000+0  10099-2 0  9998
2 39444  97.7660  53.6189 0039372 258.3233 101.3572 15.00890012613862
UWE-3                   
1 39446U 13066AG  25091.82053622  .00010179  00000+0  98069-3 0  9999
2 39446  97.8186  43.1901 0053807 349.5848  10.4251 14.92029094612247
BRITE-CA1 (TORONTO)     
1 40020U 14033L   25091.82591951  .00002444  00000+0  38463-3 0  9994
2 40020  97.9135 225.8794 0079432 249.2233 110.0451 14.71332195577398
DUCHIFAT-1              
1 40021U 14033M   25091.51644423  .00030635  00000+0  12395-2 0  9992
2 40021  98.1001 100.0300 0009525 179.9755 180.1483 15.24616876587782
NANOSATC-BR1            
1 40024U 14033Q   25091.49379537  .00020038  00000+0  10468-2 0  9998
2 40024  98.0913  84.7383 0002187 269.1962  90.9019 15.15939442586738
QB50P1                  
1 40025U 14033R   25091.48551178  .00015385  00000+0  97683-3 0  9995
2 40025  98.0794  70.3279 0008727 294.6826  65.3492 15.08943710586218
QB50P2                  
1 40032U 14033Y   25091.35820335  .00012446  00000+0  83592-3 0  9992
2 40032  98.0392  59.6721 0006780 222.5743 137.4958 15.06934811585944
PERSEUS-M2              
1 40037U 14033AD  25091.56555026  .00004300  00000+0  41542-3 0  9991
2 40037  97.9506  30.3176 0011415 330.0774  29.9791 14.93328746584829
PERSEUS-M1              
1 40039U 14033AF  25091.55051433  .00004438  00000+0  42896-3 0  9990
2 40039  97.9252  25.4846 0011182 329.4004  30.6562 14.93284999584676
POLYITAN-1              
1 40042U 14033AJ  25091.46099880  .00021403  00000+0  11157-2 0  9998
2 40042  98.1019  76.9631 0008152 225.4587 134.5979 15.15975354586306
TIGRISAT                
1 40043U 14033AK  25091.70204023  .00004937  00000+0  60636-3 0  9993
2 40043  97.7263 249.2498 0052972  82.1013 278.6209 14.82493054580451
AEROCUBE 6A             
1 40045U 14033AM  25091.44491120  .00009621  00000+0  95628-3 0  9996
2 40045  97.6873 261.4089 0044202  50.9917 309.5224 14.91155791580638
AEROCUBE 6B             
1 40046U 14033AN  25091.42577311  .00011230  00000+0  10854-2 0  9998
2 40046  97.6853 260.4168 0042816  45.0975 315.3706 14.92270604580713
CANX-4                  
1 40055U 14034C   25091.86554477  .00002088  00000+0  28335-3 0  9990
2 40055  98.3713 304.7341 0012859 353.3140   6.7897 14.79976515579252
CANX-5                  
1 40056U 14034D   25091.86856785  .00002102  00000+0  28516-3 0  9996
2 40056  98.3715 304.7555 0012853 353.5381   6.5662 14.79989722579257
UKUBE-1                 
1 40074U 14037F   25091.80864370  .00016020  00000+0  11701-2 0  9993
2 40074  98.3894  48.2157 0002182 125.5580 234.5847 15.03754321582003
BRITE-PL2 (HEWELIUSZ)   
1 40119U 14049B   25091.56072939  .00004728  00000+0  46981-3 0  9992
2 40119  97.8833 196.6961 0015869 131.0898 229.1694 14.92097563575536
AEROCUBE 5C             
1 40965U 15058B   25091.59819342  .00009186  00000+0  76938-3 0  9990
2 40965  64.7686 192.8662 0174033 222.0143 136.7513 14.87861461299876
AEROCUBE 7              
1 40966U 15058C   25091.61026437  .00011145  00000+0  87569-3 0  9999
2 40966  64.7647 183.1270 0166214 221.8939 136.9359 14.90946589300012
FOX-1A (AO-85)          
1 40967U 15058D   25091.56557742  .00009600  00000+0  82359-3 0  9997
2 40967  64.7767 207.8726 0170768 217.3325 141.5822 14.87327947 47803
SINOD-D 1               
1 40968U 15058E   25091.55155547  .00012965  00000+0  10332-2 0  9993
2 40968  64.7766 196.9579 0161156 216.4282 142.5780 14.90911888 50704
SNAP-3 ALICE            
1 40970U 15058G   25091.46867245  .00035545  00000+0  15833-2 0  9991
2 40970  64.7628 129.3350 0102242 216.6625 142.7476 15.16623853 49179
LMRST-SAT               
1 40971U 15058H   25091.62791076  .00009269  00000+0  79488-3 0  9999
2 40971  64.7768 203.3355 0172868 218.7310 140.1305 14.87126324 47818
SNAP-3 EDDIE            
1 40972U 15058J   25091.79765214  .00032148  00000+0  14075-2 0  9995
2 40972  64.7592 121.0201 0104117 217.9062 141.4703 15.17065179 51339
PROPCUBE 3              
1 40973U 15058K   25091.62366607  .00010687  00000+0  86006-3 0  9999
2 40973  64.7701 187.8751 0167682 220.4655 138.3890 14.89938990 48915
BISONSAT                
1 40974U 15058L   25091.76562988  .00018736  00000+0  11202-2 0  9993
2 40974  64.7624 147.3722 0132770 218.9890 140.1600 15.03974442 48966
SNAP-3 JIMI             
1 40975U 15058M   25091.55654995  .00014302  00000+0  10234-2 0  9990
2 40975  64.7667 170.1728 0153330 219.7661 139.2137 14.95602911 48024
PROPCUBE 1 (FLORA)      
1 40976U 15058N   25091.59388103  .00009457  00000+0  84177-3 0  9993
2 40976  64.7759 220.5715 0172386 220.2760 138.5477 14.85795777 50576
SINOD-D 3               
1 40977U 15058P   25091.60129761  .00012292  00000+0  10190-2 0  9993
2 40977  64.7739 210.1167 0162891 219.6491 139.2621 14.89313238 48886
HORYU-4                 
1 41340U 16012D   25091.49381089  .00034375  00000+0  10426-2 0  9997
2 41340  30.9975 235.3123 0008815  63.0690 297.0854 15.32872863502166
RAVAN                   
1 41849U 16067B   25091.54411551  .00020777  00000+0  76816-3 0  9992
2 41849  98.0516 294.9485 0010738 116.8979 243.3357 15.27694465459798
CELTEE 1                
1 41850U 16067C   25091.50694403  .00009334  00000+0  52506-3 0  9995
2 41850  98.1099 283.6280 0000325  23.5014 336.6230 15.13507887458937
OPTICUBE 04             
1 41851U 16067D   25091.50096398  .00005590  00000+0  38000-3 0  9998
2 41851  98.0938 275.7765 0017182 164.3775 195.7985 15.06673555458597
